ONEWEB-0361             
1 49287U 21090J   24092.49053670  .00000048  00000+0  85572-4 0  9995
2 49287  87.9149  74.9687 0002003  82.9865 277.1496 13.20769033123819
ONEWEB-0362             
1 49288U 21090K   24092.56236096  .00000047  00000+0  84785-4 0  9993
2 49288  87.9098 105.5408 0001685 100.3193 259.8130 13.19723679120520
ONEWEB-0363             
1 49289U 21090L   24092.50632820  .00000038  00000+0  60847-4 0  9996
2 49289  87.9147  74.9609 0002343  81.7660 278.3738 13.20769407123828
ONEWEB-0364             
1 49290U 21090M   24092.46843646 -.00000230  00000+0 -59786-3 0  9998
2 49290  87.9150  74.9923 0001792  80.3524 279.7812 13.20770761124952
ONEWEB-0365             
1 49291U 21090N   24092.57183754 -.00000012  00000+0 -61278-4 0  9996
2 49291  87.9092 105.5243 0001825  92.8421 267.2921 13.19723397120034
ONEWEB-0366             
1 49292U 21090P   24092.51126530  .00000241  00000+0  61565-3 0  9990
2 49292  87.8894  90.2468 0001875  82.2027 277.9315 13.14503834121586
ONEWEB-0367             
1 49293U 21090Q   24092.50474784  .00000096  00000+0  20486-3 0  9992
2 49293  87.9148  74.9555 0001833  77.9684 282.1655 13.20769780123342
ONEWEB-0368             
1 49294U 21090R   24092.47791041  .00000055  00000+0  10359-3 0  9990
2 49294  87.9148  74.9903 0002122  60.3705 299.7639 13.20769898124495
